{
  "type": "FeatureCollection",
  "features": [
    {
      "type": "Feature",
      "properties": {
        "norad_id": 67131,
        "name": "ZIYUAN 3-04 (ZY 3-04)",
        "group": "last-30-days",
        "lat": 34.75970679401034,
        "lon": -99.99634397100547,
        "alt_km": 498.1303477129186,
        "timestamp": "2025-12-26T17:24:53.444454+00:00",
        "meta_object_name": "ZIYUAN 3-04 (ZY 3-04)",
        "meta_object_id": "2025-300A",
        "meta_epoch": "2025-12-21T18:22:34.187808",
        "meta_mean_motion": 15.21179479,
        "meta_eccentricity": 0.00027623,
        "meta_inclination": 97.4922,
        "meta_ra_of_asc_node": 69.8294,
        "meta_arg_of_pericenter": 167.6924,
        "meta_mean_anomaly": 192.438,
        "meta_ephemeris_type": 0,
        "meta_classification_type": "U",
        "meta_norad_cat_id": 67131,
        "meta_element_set_no": 999,
        "meta_rev_at_epoch": 86,
        "meta_bstar": 6.5769783e-05,
        "meta_mean_motion_dot": 1.396e-05,
        "meta_mean_motion_ddot": 0,
        "tle_line1": "1 67131U 25300A   25355.76567347  .00001396  00000+0  65770-4 0  9990",
        "tle_line2": "2 67131  97.4922  69.8294 0002762 167.6924 192.4380 15.21179479   860"
      },
      "geometry": {
        "type": "Point",
        "coordinates": [
          -99.99634397100547,
          34.75970679401034
        ]
      }
    },
    {
      "type": "Feature",
      "properties": {
        "norad_id": 67132,
        "name": "CZ-4B R/B",
        "group": "last-30-days",
        "lat": -61.148806228109855,
        "lon": 89.53222330416708,
        "alt_km": 293.65247290504067,
        "timestamp": "2025-12-26T17:24:53.444464+00:00",
        "meta_object_name": "CZ-4B R/B",
        "meta_object_id": "2025-300B",
        "meta_epoch": "2025-12-18T16:13:04.609056",
        "meta_mean_motion": 15.63831828,
        "meta_eccentricity": 0.01741973,
        "meta_inclination": 97.5563,
        "meta_ra_of_asc_node": 66.966,
        "meta_arg_of_pericenter": 9.3582,
        "meta_mean_anomaly": 351.0851,
        "meta_ephemeris_type": 0,
        "meta_classification_type": "U",
        "meta_norad_cat_id": 67132,
        "meta_element_set_no": 999,
        "meta_rev_at_epoch": 40,
        "meta_bstar": 0.00019566238,
        "meta_mean_motion_dot": 0.00040543,
        "meta_mean_motion_ddot": 2.652968e-06,
        "tle_line1": "1 67132U 25300B   25352.67574779  .00040543  26530-5  19566-3 0  9995",
        "tle_line2": "2 67132  97.5563  66.9660 0174197   9.3582 351.0851 15.63831828   407"
      },
      "geometry": {
        "type": "Point",
        "coordinates": [
          89.53222330416708,
          -61.148806228109855
        ]
      }
    },
    {
      "type": "Feature",
      "properties": {
        "norad_id": 67133,
        "name": "KUIPER-00144",
        "group": "last-30-days",
        "lat": 26.98881113756313,
        "lon": -145.89076343484183,
        "alt_km": 452.2781168978536,
        "timestamp": "2025-12-26T17:24:53.444474+00:00",
        "meta_object_name": "KUIPER-00144",
        "meta_object_id": "2025-301A",
        "meta_epoch": "2025-12-26T05:51:12.696480",
        "meta_mean_motion": 15.35450143,
        "meta_eccentricity": 0.00061687,
        "meta_inclination": 51.8703,
        "meta_ra_of_asc_node": 60.0133,
        "meta_arg_of_pericenter": 122.3747,
        "meta_mean_anomaly": 237.7837,
        "meta_ephemeris_type": 0,
        "meta_classification_type": "U",
        "meta_norad_cat_id": 67133,
        "meta_element_set_no": 999,
        "meta_rev_at_epoch": 244,
        "meta_bstar": 0.00065908763,
        "meta_mean_motion_dot": 0.00022746,
        "meta_mean_motion_ddot": 0,
        "tle_line1": "1 67133U 25301A   25360.24389695  .00022746  00000+0  65909-3 0  9995",
        "tle_line2": "2 67133  51.8703  60.0133 0006168 122.3747 237.7837 15.35450143  2444"
      },
      "geometry": {
        "type": "Point",
        "coordinates": [
          -145.89076343484183,
          26.98881113756313
        ]
      }
    },
    {
      "type": "Feature",
      "properties": {
        "norad_id": 67134,
        "name": "KUIPER-00164",
        "group": "last-30-days",
        "lat": 6.137579241166108,
        "lon": -127.2123570226422,
        "alt_km": 456.1856531133835,
        "timestamp": "2025-12-26T17:24:53.444484+00:00",
        "meta_object_name": "KUIPER-00164",
        "meta_object_id": "2025-301B",
        "meta_epoch": "2025-12-26T04:10:43.002912",
        "meta_mean_motion": 15.3615374,
        "meta_eccentricity": 0.00032634,
        "meta_inclination": 51.8732,
        "meta_ra_of_asc_node": 60.2955,
        "meta_arg_of_pericenter": 110.0937,
        "meta_mean_anomaly": 250.04,
        "meta_ephemeris_type": 0,
        "meta_classification_type": "U",
        "meta_norad_cat_id": 67134,
        "meta_element_set_no": 999,
        "meta_rev_at_epoch": 261,
        "meta_bstar": 0.0010454276,
        "meta_mean_motion_dot": 0.00037197,
        "meta_mean_motion_ddot": 0,
        "tle_line1": "1 67134U 25301B   25360.17410883  .00037197  00000+0  10454-2 0  9992",
        "tle_line2": "2 67134  51.8732  60.2955 0003263 110.0937 250.0400 15.36153740  2616"
      },
      "geometry": {
        "type": "Point",
        "coordinates": [
          -127.2123570226422,
          6.137579241166108
        ]
      }
    },
    {
      "type": "Feature",
      "properties": {
        "norad_id": 67135,
        "name": "KUIPER-00175",
        "group": "last-30-days",
        "lat": -8.243239507915115,
        "lon": -115.87679902929371,
        "alt_km": 459.2820262456635,
        "timestamp": "2025-12-26T17:24:53.444497+00:00",
        "meta_object_name": "KUIPER-00175",
        "meta_object_id": "2025-301C",
        "meta_epoch": "2025-12-26T05:39:49.700160",
        "meta_mean_motion": 15.36602265,
        "meta_eccentricity": 0.00026279,
        "meta_inclination": 51.8742,
        "meta_ra_of_asc_node": 59.9557,
        "meta_arg_of_pericenter": 43.6412,
        "meta_mean_anomaly": 316.4782,
        "meta_ephemeris_type": 0,
        "meta_classification_type": "U",
        "meta_norad_cat_id": 67135,
        "meta_element_set_no": 999,
        "meta_rev_at_epoch": 251,
        "meta_bstar": 0.0011607023,
        "meta_mean_motion_dot": 0.00041971,
        "meta_mean_motion_ddot": 0,
        "tle_line1": "1 67135U 25301C   25360.23599190  .00041971  00000+0  11607-2 0  9995",
        "tle_line2": "2 67135  51.8742  59.9557 0002627  43.6412 316.4782 15.36602265  2513"
      },
      "geometry": {
        "type": "Point",
        "coordinates": [
          -115.87679902929371,
          -8.243239507915115
        ]
      }
    },
    {
      "type": "Feature",
      "properties": {
        "norad_id": 67136,
        "name": "KUIPER-00179",
        "group": "last-30-days",
        "lat": 0.6112510536850111,
        "lon": -122.86327485474266,
        "alt_km": 458.1655992090118,
        "timestamp": "2025-12-26T17:24:53.444507+00:00",
        "meta_object_name": "KUIPER-00179",
        "meta_object_id": "2025-301D",
        "meta_epoch": "2025-12-26T05:42:36.610272",
        "meta_mean_motion": 15.36268018,
        "meta_eccentricity": 0.00026788,
        "meta_inclination": 51.8746,
        "meta_ra_of_asc_node": 59.972,
        "meta_arg_of_pericenter": 75.6022,
        "meta_mean_anomaly": 284.5262,
        "meta_ephemeris_type": 0,
        "meta_classification_type": "U",
        "meta_norad_cat_id": 67136,
        "meta_element_set_no": 999,
        "meta_rev_at_epoch": 262,
        "meta_bstar": 0.00045749301,
        "meta_mean_motion_dot": 0.00016074,
        "meta_mean_motion_ddot": 0,
        "tle_line1": "1 67136U 25301D   25360.23792373  .00016074  00000+0  45749-3 0  9995",
        "tle_line2": "2 67136  51.8746  59.9720 0002678  75.6022 284.5262 15.36268018  2622"
      },
      "geometry": {
        "type": "Point",
        "coordinates": [
          -122.86327485474266,
          0.6112510536850111
        ]
      }
    },
    {
      "type": "Feature",
      "properties": {
        "norad_id": 67137,
        "name": "KUIPER-00181",
        "group": "last-30-days",
        "lat": 49.10681681597015,
        "lon": 172.64645034351133,
        "alt_km": 450.52904324286374,
        "timestamp": "2025-12-26T17:24:53.444521+00:00",
        "meta_object_name": "KUIPER-00181",
        "meta_object_id": "2025-301E",
        "meta_epoch": "2025-12-26T06:00:48.981888",
        "meta_mean_motion": 15.34437826,
        "meta_eccentricity": 0.0010029,
        "meta_inclination": 51.8642,
        "meta_ra_of_asc_node": 60.0578,
        "meta_arg_of_pericenter": 144.0576,
        "meta_mean_anomaly": 216.1086,
        "meta_ephemeris_type": 0,
        "meta_classification_type": "U",
        "meta_norad_cat_id": 67137,
        "meta_element_set_no": 999,
        "meta_rev_at_epoch": 260,
        "meta_bstar": 0.00064046619,
        "meta_mean_motion_dot": 0.00021398,
        "meta_mean_motion_ddot": 0,
        "tle_line1": "1 67137U 25301E   25360.25056692  .00021398  00000+0  64047-3 0  9992",
        "tle_line2": "2 67137  51.8642  60.0578 0010029 144.0576 216.1086 15.34437826  2602"
      },
      "geometry": {
        "type": "Point",
        "coordinates": [
          172.64645034351133,
          49.10681681597015
        ]
      }
    }
  ]
}